{
    "links": {
        "self": "http://www.neowsapp.com/rest/v1/neo/54016313?api_key=iIulBulltgU6a56xZRHN4H3l9WmuAYTsLGpBGhQ2"
    },
    "id": "54016313",
    "neo_reference_id": "54016313",
    "name": "(2020 FC3)",
    "designation": "2020 FC3",
    "nasa_jpl_url": "http://ssd.jpl.nasa.gov/sbdb.cgi?sstr=54016313",
    "absolute_magnitude_h": 25.325,
    "estimated_diameter": {
        "kilometers": {
            "estimated_diameter_min": 0.0228852139,
            "estimated_diameter_max": 0.051172894
        },
        "meters": {
            "estimated_diameter_min": 22.8852139331,
            "estimated_diameter_max": 51.172894034
        },
        "miles": {
            "estimated_diameter_min": 0.0142202083,
            "estimated_diameter_max": 0.0317973523
        },
        "feet": {
            "estimated_diameter_min": 75.0827252802,
            "estimated_diameter_max": 167.8900776624
        }
    },
    "is_potentially_hazardous_asteroid": false,
    "close_approach_data": [
        {
            "close_approach_date": "2020-03-07",
            "close_approach_date_full": "2020-Mar-07 05:06",
            "epoch_date_close_approach": 1583557560000,
            "relative_velocity": {
                "kilometers_per_second": "9.1154629441",
                "kilometers_per_hour": "32815.6665987614",
                "miles_per_hour": "20390.3790596581"
            },
            "miss_distance": {
                "astronomical": "0.0424353456",
                "lunar": "16.5073494384",
                "kilometers": "6348237.314473872",
                "miles": "3944611.7531365536"
            },
            "orbiting_body": "Earth"
        },
        {
            "close_approach_date": "2195-03-23",
            "close_approach_date_full": "2195-Mar-23 02:48",
            "epoch_date_close_approach": 7107360480000,
            "relative_velocity": {
                "kilometers_per_second": "11.8064938122",
                "kilometers_per_hour": "42503.3777238487",
                "miles_per_hour": "26409.9460084659"
            },
            "miss_distance": {
                "astronomical": "0.1184723942",
                "lunar": "46.0857613438",
                "kilometers": "17723217.826120354",
                "miles": "11012696.8916107252"
            },
            "orbiting_body": "Earth"
        }
    ],
    "orbital_data": {
        "orbit_id": "2",
        "orbit_determination_date": "2020-04-01 05:54:38",
        "first_observation_date": "2020-03-11",
        "last_observation_date": "2020-03-31",
        "data_arc_in_days": 20,
        "observations_used": 28,
        "orbit_uncertainty": "8",
        "minimum_orbit_intersection": ".0268711",
        "jupiter_tisserand_invariant": "3.509",
        "epoch_osculation": "2458926.5",
        "eccentricity": ".5461590279289132",
        "semi_major_axis": "2.136137681438212",
        "inclination": "2.034440312364882",
        "ascending_node_longitude": "206.2122809544044",
        "orbital_period": "1140.36082215836",
        "perihelion_distance": ".9694668018215957",
        "perihelion_argument": "289.4176976665275",
        "aphelion_distance": "3.302808561054829",
        "perihelion_time": "2458891.829531157876",
        "mean_anomaly": "10.94510486561715",
        "mean_motion": ".315689554573287",
        "equinox": "J2000",
        "orbit_class": {
            "orbit_class_type": "APO",
            "orbit_class_description": "Near-Earth asteroid orbits which cross the Earth’s orbit similar to that of 1862 Apollo",
            "orbit_class_range": "a (semi-major axis) > 1.0 AU; q (perihelion) < 1.017 AU"
        }
    },
    "is_sentry_object": false
}